IRIDIUM 166             
1 43570U 18061B   24090.88720451  .00000100  00000+0  28794-4 0  9999
2 43570  86.4008  34.5183 0002521  83.3081 276.8402 14.34213612297547
IRIDIUM 158             
1 43571U 18061C   24090.85549210  .00000726  00000+0  25201-3 0  9992
2 43571  86.4004  34.5409 0002290  80.6453 279.5002 14.34217347297513
IRIDIUM 165             
1 43572U 18061D   24090.60178852  .00000362  00000+0  12227-3 0  9996
2 43572  86.4005  34.6778 0002300  79.7565 280.3890 14.34218614297490
IRIDIUM 155             
1 43573U 18061E   24090.77304128  .00000590  00000+0  20346-3 0  9996
2 43573  86.4000  34.5153 0002451  86.0024 274.1452 14.34211450297496
IRIDIUM 154             
1 43574U 18061F   24090.89353510  .00000719  00000+0  24978-3 0  9997
2 43574  86.4004  34.5590 0001972  86.0259 274.1162 14.34223861297557
IRIDIUM 163             
1 43575U 18061G   24090.59543427  .00000592  00000+0  20417-3 0  9996
2 43575  86.4002  34.6241 0002236  87.6545 272.4907 14.34219908297486
IRIDIUM 156             
1 43576U 18061H   24090.57007436  .00000435  00000+0  14827-3 0  9994
2 43576  86.4001  34.6408 0002334  82.1266 278.0195 14.34218646297467
IRIDIUM 164             
1 43577U 18061J   24090.55104338  .00000545  00000+0  18762-3 0  9996
2 43577  86.4001  34.6767 0002082  80.9463 279.1968 14.34214599297510
