<?xml version="1.0" encoding="UTF-8"?>
<ndm xmlns:xsi="http://www.w3.org/2001/XMLSchema-instance" xsi:noNamespaceSchemaLocation="https://sanaregistry.org/r/ndmxml_unqualified/ndmxml-2.0.0-master-2.0.xsd">
<omm id="CCSDS_OMM_VERS" version="2.0">
<header><CREATION_DATE/><ORIGINATOR/></header><body><segment><metadata><OBJECT_NAME>IRIDIUM 166</OBJECT_NAME><OBJECT_ID>2018-061B</OBJECT_ID><CENTER_NAME>EARTH</CENTER_NAME><REF_FRAME>TEME</REF_FRAME><TIME_SYSTEM>UTC</TIME_SYSTEM><MEAN_ELEMENT_THEORY>SGP4</MEAN_ELEMENT_THEORY></metadata><data><meanElements><EPOCH>2024-03-30T21:17:34.469664</EPOCH><MEAN_MOTION>14.34213612</MEAN_MOTION><ECCENTRICITY>.0002521</ECCENTRICITY><INCLINATION>86.4008</INCLINATION><RA_OF_ASC_NODE>34.5183</RA_OF_ASC_NODE><ARG_OF_PERICENTER>83.3081</ARG_OF_PERICENTER><MEAN_ANOMALY>276.8402</MEAN_ANOMALY></meanElements><tleParameters><EPHEMERIS_TYPE>0</EPHEMERIS_TYPE><CLASSIFICATION_TYPE>U</CLASSIFICATION_TYPE><NORAD_CAT_ID>43570</NORAD_CAT_ID><ELEMENT_SET_NO>999</ELEMENT_SET_NO><REV_AT_EPOCH>29754</REV_AT_EPOCH><BSTAR>.28794E-4</BSTAR><MEAN_MOTION_DOT>.1E-5</MEAN_MOTION_DOT><MEAN_MOTION_DDOT>0</MEAN_MOTION_DDOT></tleParameters></data></segment></body></omm>
<omm id="CCSDS_OMM_VERS" version="2.0">
<header><CREATION_DATE/><ORIGINATOR/></header><body><segment><metadata><OBJECT_NAME>IRIDIUM 158</OBJECT_NAME><OBJECT_ID>2018-061C</OBJECT_ID><CENTER_NAME>EARTH</CENTER_NAME><REF_FRAME>TEME</REF_FRAME><TIME_SYSTEM>UTC</TIME_SYSTEM><MEAN_ELEMENT_THEORY>SGP4</MEAN_ELEMENT_THEORY></metadata><data><meanElements><EPOCH>2024-03-30T20:31:54.517440</EPOCH><MEAN_MOTION>14.34217347</MEAN_MOTION><ECCENTRICITY>.000229</ECCENTRICITY><INCLINATION>86.4004</INCLINATION><RA_OF_ASC_NODE>34.5409</RA_OF_ASC_NODE><ARG_OF_PERICENTER>80.6453</ARG_OF_PERICENTER><MEAN_ANOMALY>279.5002</MEAN_ANOMALY></meanElements><tleParameters><EPHEMERIS_TYPE>0</EPHEMERIS_TYPE><CLASSIFICATION_TYPE>U</CLASSIFICATION_TYPE><NORAD_CAT_ID>43571</NORAD_CAT_ID><ELEMENT_SET_NO>999</ELEMENT_SET_NO><REV_AT_EPOCH>29751</REV_AT_EPOCH><BSTAR>.25201E-3</BSTAR><MEAN_MOTION_DOT>.726E-5</MEAN_MOTION_DOT><MEAN_MOTION_DDOT>0</MEAN_MOTION_DDOT></tleParameters></data></segment></body></omm>
<omm id="CCSDS_OMM_VERS" version="2.0">
<header><CREATION_DATE/><ORIGINATOR/></header><body><segment><metadata><OBJECT_NAME>IRIDIUM 165</OBJECT_NAME><OBJECT_ID>2018-061D</OBJECT_ID><CENTER_NAME>EARTH</CENTER_NAME><REF_FRAME>TEME</REF_FRAME><TIME_SYSTEM>UTC</TIME_SYSTEM><MEAN_ELEMENT_THEORY>SGP4</MEAN_ELEMENT_THEORY></metadata><data><meanElements><EPOCH>2024-03-30T14:26:34.528128</EPOCH><MEAN_MOTION>14.34218614</MEAN_MOTION><ECCENTRICITY>.00023</ECCENTRICITY><INCLINATION>86.4005</INCLINATION><RA_OF_ASC_NODE>34.6778</RA_OF_ASC_NODE><ARG_OF_PERICENTER>79.7565</ARG_OF_PERICENTER><MEAN_ANOMALY>280.3890</MEAN_ANOMALY></meanElements><tleParameters><EPHEMERIS_TYPE>0</EPHEMERIS_TYPE><CLASSIFICATION_TYPE>U</CLASSIFICATION_TYPE><NORAD_CAT_ID>43572</NORAD_CAT_ID><ELEMENT_SET_NO>999</ELEMENT_SET_NO><REV_AT_EPOCH>29749</REV_AT_EPOCH><BSTAR>.12227E-3</BSTAR><MEAN_MOTION_DOT>.362E-5</MEAN_MOTION_DOT><MEAN_MOTION_DDOT>0</MEAN_MOTION_DDOT></tleParameters></data></segment></body></omm>
<omm id="CCSDS_OMM_VERS" version="2.0">
<header><CREATION_DATE/><ORIGINATOR/></header><body><segment><metadata><OBJECT_NAME>IRIDIUM 155</OBJECT_NAME><OBJECT_ID>2018-061E</OBJECT_ID><CENTER_NAME>EARTH</CENTER_NAME><REF_FRAME>TEME</REF_FRAME><TIME_SYSTEM>UTC</TIME_SYSTEM><MEAN_ELEMENT_THEORY>SGP4</MEAN_ELEMENT_THEORY></metadata><data><meanElements><EPOCH>2024-03-30T18:33:10.766592</EPOCH><MEAN_MOTION>14.34211450</MEAN_MOTION><ECCENTRICITY>.0002451</ECCENTRICITY><INCLINATION>86.4000</INCLINATION><RA_OF_ASC_NODE>34.5153</RA_OF_ASC_NODE><ARG_OF_PERICENTER>86.0024</ARG_OF_PERICENTER><MEAN_ANOMALY>274.1452</MEAN_ANOMALY></meanElements><tleParameters><EPHEMERIS_TYPE>0</EPHEMERIS_TYPE><CLASSIFICATION_TYPE>U</CLASSIFICATION_TYPE><NORAD_CAT_ID>43573</NORAD_CAT_ID><ELEMENT_SET_NO>999</ELEMENT_SET_NO><REV_AT_EPOCH>29749</REV_AT_EPOCH><BSTAR>.20346E-3</BSTAR><MEAN_MOTION_DOT>.59E-5</MEAN_MOTION_DOT><MEAN_MOTION_DDOT>0</MEAN_MOTION_DDOT></tleParameters></data></segment></body></omm>
<omm id="CCSDS_OMM_VERS" version="2.0">
<header><CREATION_DATE/><ORIGINATOR/></header><body><segment><metadata><OBJECT_NAME>IRIDIUM 154</OBJECT_NAME><OBJECT_ID>2018-061F</OBJECT_ID><CENTER_NAME>EARTH</CENTER_NAME><REF_FRAME>TEME</REF_FRAME><TIME_SYSTEM>UTC</TIME_SYSTEM><MEAN_ELEMENT_THEORY>SGP4</MEAN_ELEMENT_THEORY></metadata><data><meanElements><EPOCH>2024-03-30T21:26:41.432640</EPOCH><MEAN_MOTION>14.34223861</MEAN_MOTION><ECCENTRICITY>.0001972</ECCENTRICITY><INCLINATION>86.4004</INCLINATION><RA_OF_ASC_NODE>34.5590</RA_OF_ASC_NODE><ARG_OF_PERICENTER>86.0259</ARG_OF_PERICENTER><MEAN_ANOMALY>274.1162</MEAN_ANOMALY></meanElements><tleParameters><EPHEMERIS_TYPE>0</EPHEMERIS_TYPE><CLASSIFICATION_TYPE>U</CLASSIFICATION_TYPE><NORAD_CAT_ID>43574</NORAD_CAT_ID><ELEMENT_SET_NO>999</ELEMENT_SET_NO><REV_AT_EPOCH>29755</REV_AT_EPOCH><BSTAR>.24978E-3</BSTAR><MEAN_MOTION_DOT>.719E-5</MEAN_MOTION_DOT><MEAN_MOTION_DDOT>0</MEAN_MOTION_DDOT></tleParameters></data></segment></body></omm>
<omm id="CCSDS_OMM_VERS" version="2.0">
<header><CREATION_DATE/><ORIGINATOR/></header><body><segment><metadata><OBJECT_NAME>IRIDIUM 163</OBJECT_NAME><OBJECT_ID>2018-061G</OBJECT_ID><CENTER_NAME>EARTH</CENTER_NAME><REF_FRAME>TEME</REF_FRAME><TIME_SYSTEM>UTC</TIME_SYSTEM><MEAN_ELEMENT_THEORY>SGP4</MEAN_ELEMENT_THEORY></metadata><data><meanElements><EPOCH>2024-03-30T14:17:25.520928</EPOCH><MEAN_MOTION>14.34219908</MEAN_MOTION><ECCENTRICITY>.0002236</ECCENTRICITY><INCLINATION>86.4002</INCLINATION><RA_OF_ASC_NODE>34.6241</RA_OF_ASC_NODE><ARG_OF_PERICENTER>87.6545</ARG_OF_PERICENTER><MEAN_ANOMALY>272.4907</MEAN_ANOMALY></meanElements><tleParameters><EPHEMERIS_TYPE>0</EPHEMERIS_TYPE><CLASSIFICATION_TYPE>U</CLASSIFICATION_TYPE><NORAD_CAT_ID>43575</NORAD_CAT_ID><ELEMENT_SET_NO>999</ELEMENT_SET_NO><REV_AT_EPOCH>29748</REV_AT_EPOCH><BSTAR>.20417E-3</BSTAR><MEAN_MOTION_DOT>.592E-5</MEAN_MOTION_DOT><MEAN_MOTION_DDOT>0</MEAN_MOTION_DDOT></tleParameters></data></segment></body></omm>
<omm id="CCSDS_OMM_VERS" version="2.0">
<header><CREATION_DATE/><ORIGINATOR/></header><body><segment><metadata><OBJECT_NAME>IRIDIUM 156</OBJECT_NAME><OBJECT_ID>2018-061H</OBJECT_ID><CENTER_NAME>EARTH</CENTER_NAME><REF_FRAME>TEME</REF_FRAME><TIME_SYSTEM>UTC</TIME_SYSTEM><MEAN_ELEMENT_THEORY>SGP4</MEAN_ELEMENT_THEORY></metadata><data><meanElements><EPOCH>2024-03-30T13:40:54.424704</EPOCH><MEAN_MOTION>14.34218646</MEAN_MOTION><ECCENTRICITY>.0002334</ECCENTRICITY><INCLINATION>86.4001</INCLINATION><RA_OF_ASC_NODE>34.6408</RA_OF_ASC_NODE><ARG_OF_PERICENTER>82.1266</ARG_OF_PERICENTER><MEAN_ANOMALY>278.0195</MEAN_ANOMALY></meanElements><tleParameters><EPHEMERIS_TYPE>0</EPHEMERIS_TYPE><CLASSIFICATION_TYPE>U</CLASSIFICATION_TYPE><NORAD_CAT_ID>43576</NORAD_CAT_ID><ELEMENT_SET_NO>999</ELEMENT_SET_NO><REV_AT_EPOCH>29746</REV_AT_EPOCH><BSTAR>.14827E-3</BSTAR><MEAN_MOTION_DOT>.435E-5</MEAN_MOTION_DOT><MEAN_MOTION_DDOT>0</MEAN_MOTION_DDOT></tleParameters></data></segment></body></omm>
<omm id="CCSDS_OMM_VERS" version="2.0">
<header><CREATION_DATE/><ORIGINATOR/></header><body><segment><metadata><OBJECT_NAME>IRIDIUM 164</OBJECT_NAME><OBJECT_ID>2018-061J</OBJECT_ID><CENTER_NAME>EARTH</CENTER_NAME><REF_FRAME>TEME</REF_FRAME><TIME_SYSTEM>UTC</TIME_SYSTEM><MEAN_ELEMENT_THEORY>SGP4</MEAN_ELEMENT_THEORY></metadata><data><meanElements><EPOCH>2024-03-30T13:13:30.148032</EPOCH><MEAN_MOTION>14.34214599</MEAN_MOTION><ECCENTRICITY>.0002082</ECCENTRICITY><INCLINATION>86.4001</INCLINATION><RA_OF_ASC_NODE>34.6767</RA_OF_ASC_NODE><ARG_OF_PERICENTER>80.9463</ARG_OF_PERICENTER><MEAN_ANOMALY>279.1968</MEAN_ANOMALY></meanElements><tleParameters><EPHEMERIS_TYPE>0</EPHEMERIS_TYPE><CLASSIFICATION_TYPE>U</CLASSIFICATION_TYPE><NORAD_CAT_ID>43577</NORAD_CAT_ID><ELEMENT_SET_NO>999</ELEMENT_SET_NO><REV_AT_EPOCH>29751</REV_AT_EPOCH><BSTAR>.18762E-3</BSTAR><MEAN_MOTION_DOT>.545E-5</MEAN_MOTION_DOT><MEAN_MOTION_DDOT>0</MEAN_MOTION_DDOT></tleParameters></data></segment></body></omm>

</ndm>
